[{"OBJECT_NAME":"STARLINK-32959","OBJECT_ID":"2025-076A","EPOCH":"2026-03-09T02:10:53.692608","MEAN_MOTION":15.27618112,"ECCENTRICITY":0.0001663,"INCLINATION":43.0013,"RA_OF_ASC_NODE":329.0575,"ARG_OF_PERICENTER":269.6925,"MEAN_ANOMALY":90.3736,"EPHEMERIS_TYPE":0,"CLASSIFICATION_TYPE":"U","NORAD_CAT_ID":63569,"ELEMENT_SET_NO":999,"REV_AT_EPOCH":5169,"BSTAR":0.0015507218,"MEAN_MOTION_DOT":0.00042708,"MEAN_MOTION_DDOT":0},{"OBJECT_NAME":"SIMSAT 1","OBJECT_ID":"2000-026A","EPOCH":"2026-03-09T17:22:54.646176","MEAN_MOTION":15.27666538,"ECCENTRICITY":0.00084816,"INCLINATION":86.3501,"RA_OF_ASC_NODE":180.5413,"ARG_OF_PERICENTER":14.8337,"MEAN_ANOMALY":345.3157,"EPHEMERIS_TYPE":0,"CLASSIFICATION_TYPE":"U","NORAD_CAT_ID":26365,"ELEMENT_SET_NO":999,"REV_AT_EPOCH":42720,"BSTAR":0.00013499313,"MEAN_MOTION_DOT":3.69e-5,"MEAN_MOTION_DDOT":0}]
